OBJECT_NAME,OBJECT_ID,EPOCH,MEAN_MOTION,ECCENTRICITY,INCLINATION,RA_OF_ASC_NODE,ARG_OF_PERICENTER,MEAN_ANOMALY,EPHEMERIS_TYPE,CLASSIFICATION_TYPE,NORAD_CAT_ID,ELEMENT_SET_NO,REV_AT_EPOCH,BSTAR,MEAN_MOTION_DOT,MEAN_MOTION_DDOT
COSMOS 2534 (758),2019-030A,2026-06-29T15:50:49.664256,2.13102425,.00135177,64.3700,192.1964,275.0224,73.0621,0,U,44299,999,5518,0,.85E-6,0
BEIDOU-3 IGSO-2 (C39),2019-035A,2026-06-29T14:45:57.574944,1.00262956,.00395627,55.2496,158.7537,216.3082,243.4006,0,U,44337,999,2579,0,-.94E-6,0
GPS BIII-2  (PRN 18),2019-056A,2026-06-30T20:22:25.868064,2.00570217,.0062696,55.6300,330.6004,197.8000,334.3444,0,U,44506,999,5034,0,-.87E-6,0
BEIDOU-3 M24 (C46),2019-061A,2026-06-30T03:06:14.697792,1.86229317,.000856,54.3970,182.2910,358.7023,1.3089,0,U,44542,999,4603,0,.71E-6,0
BEIDOU-3 M23 (C45),2019-061B,2026-06-30T19:06:58.681728,1.86227617,.0005842,54.3961,182.2371,339.8023,19.0264,0,U,44543,999,4604,0,.7E-6,0
EUTELSAT 5 WEST B (EGNOS/PRN 121),2019-067A,2026-06-30T17:28:24.052224,1.00272895,.0003386,0.0723,328.3048,131.8383,75.7476,0,U,44624,999,2457,0,-.31E-6,0
BEIDOU-3 M22 (C44),2019-078A,2026-06-30T12:09:07.274880,1.86227600,.0006126,53.9229,299.3588,50.5325,309.5340,0,U,44793,999,4489,0,-.68E-6,0
BEIDOU-3 M21 (C43),2019-078B,2026-06-27T23:04:25.677120,1.86227959,.00039786,53.8982,299.4091,49.1157,310.9195,0,U,44794,999,4485,0,-.87E-6,0
COSMOS 2544 (759),2019-088A,2026-06-26T21:12:43.508160,2.13102970,.00129791,65.5710,73.4070,257.6791,102.2158,0,U,44850,999,5092,0,-.55E-6,0
BEIDOU-3 M19 (C41),2019-090A,2026-06-29T13:27:35.879616,1.86231770,.0017294,56.5689,62.3817,297.3724,252.4111,0,U,44864,999,4446,0,-.55E-6,0
BEIDOU-3 M20 (C42),2019-090B,2026-06-29T09:50:57.937056,1.86231892,.00151468,56.5707,62.4211,311.8679,226.6408,0,U,44865,999,4444,0,-.56E-6,0
BEIDOU-3 G2 (C60),2020-017A,2026-06-30T19:35:22.367904,1.00271840,.0002604,2.8908,47.5491,43.3095,201.9585,0,U,45344,999,2339,0,-.132E-5,0
COSMOS 2545 (760),2020-018A,2026-06-29T10:12:09.408960,2.13102698,.0008865,64.3471,311.9885,229.6303,130.2863,0,U,45358,999,4892,0,-.68E-6,0
BEIDOU-3 G3 (C61),2020-040A,2026-06-30T19:44:06.530784,1.00272708,.0002533,2.4796,67.4778,332.2931,285.7054,0,U,45807,999,2220,0,-.345E-5,0
GPS BIII-3  (PRN 23),2020-041A,2026-06-29T16:53:58.819200,2.00558736,.00655661,56.6686,28.4552,209.6569,153.6928,0,U,45854,999,4429,0,-.68E-6,0
GALAXY 30 (WAAS/PRN 135),2020-056C,2026-06-30T14:34:24.550176,1.00272760,.0002259,0.0177,29.8448,67.0191,275.3998,0,U,46114,999,2142,0,.47E-6,0
COSMOS 2547 (705K),2020-075A,2026-06-27T17:42:17.544384,2.13100199,.00094451,64.6006,192.1234,239.9136,120.0437,0,U,46805,999,4413,0,.98E-6,0
GPS BIII-4  (PRN 14),2020-078A,2026-06-30T05:33:20.044800,2.00565172,.00739924,53.9788,210.2495,207.4938,153.4541,0,U,46826,999,4177,0,.71E-6,0
GPS BIII-5  (PRN 11),2021-054A,2026-06-30T17:24:01.969920,2.00568454,.0025883,55.1677,331.9157,228.3828,315.2538,0,U,48859,999,3702,0,-.88E-6,0
QZS-1R (QZSS/PRN 196),2021-096A,2026-06-30T14:39:30.672288,1.00251640,.0755934,37.4875,79.3848,272.0246,280.1673,0,U,49336,999,1714,0,-.286E-5,0
GSAT0223 (GALILEO 27),2021-116A,2026-06-29T21:27:43.229376,1.70476494,.00017443,57.1569,341.3321,184.5600,173.8860,0,U,49809,999,2839,0,-.86E-6,0
GSAT0224 (GALILEO 28),2021-116B,2026-06-30T14:13:57.005760,1.70476570,.0001428,57.1567,341.3123,163.7362,16.1903,0,U,49810,999,2843,0,-.84E-6,0
COSMOS 2557 (706K),2022-075A,2026-06-29T07:25:57.374112,2.13102382,.00105914,64.2907,314.0587,272.5686,87.3025,0,U,52984,999,3097,0,-.7E-6,0
COSMOS 2559 (707K),2022-130A,2026-06-30T01:37:44.557248,2.13101830,.00128229,64.2628,314.1147,179.4281,180.5683,0,U,54031,999,2896,0,-.65E-6,0
COSMOS 2564 (761),2022-161A,2026-06-30T09:07:42.606336,2.13102090,.0012257,64.7429,192.2737,225.0751,134.8665,0,U,54377,999,2791,0,.82E-6,0
GPS BIII-6  (PRN 28),2023-009A,2026-06-27T22:18:56.418624,2.00570960,.00062636,55.1241,148.0967,317.3274,46.4275,0,U,55268,999,2546,0,.27E-6,0
BEIDOU-3 G4 (C62),2023-066A,2026-06-30T19:52:28.228800,1.00269617,.000498,0.4727,334.9204,175.8070,206.3166,0,U,56564,999,1153,0,-.27E-5,0
NVS-01 (IRNSS-1J),2023-076A,2026-06-30T19:49:28.515072,1.00272879,.0002842,2.1355,243.7330,9.8545,92.2420,0,U,56759,999,1125,0,-.324E-5,0
COSMOS 2569 (703K),2023-114A,2026-06-30T09:25:27.591744,2.13103831,.00101962,65.3095,72.1752,296.5286,63.4269,0,U,57517,999,2254,0,-.2E-6,0
BEIDOU-3 M28 (C50),2023-207A,2026-06-29T02:41:49.619904,1.86229901,.0002902,55.7632,61.9007,354.1115,5.9418,0,U,58654,999,1706,0,-.61E-6,0
BEIDOU-3 M26 (C48),2023-207B,2026-06-28T08:56:59.703936,1.86229915,.00026019,55.7647,61.9122,322.6839,37.3509,0,U,58655,999,1703,0,-.68E-6,0
