COSMOS 2534 [GLONASS-M] 
1 44299U 19030A   26180.66029704  .00000085  00000+0  00000+0 0  9993
2 44299  64.3700 192.1964 0013517 275.0224  73.0621  2.13102425 55189
BEIDOU-3 IGSO-2         
1 44337U 19035A   26180.61524971 -.00000094  00000+0  00000+0 0  9993
2 44337  55.2496 158.7537 0039562 216.3082 243.4006  1.00262956 25790
NAVSTAR 78 (USA 293)    
1 44506U 19056A   26181.84891051 -.00000087  00000+0  00000+0 0  9998
2 44506  55.6300 330.6004 0062696 197.8000 334.3444  2.00570217 50341
BEIDOU-3 M24            
1 44542U 19061A   26181.12933678  .00000071  00000+0  00000+0 0  9999
2 44542  54.3970 182.2910 0008560 358.7023   1.3089  1.86229317 46032
BEIDOU-3 M23            
1 44543U 19061B   26181.79651252  .00000070  00000+0  00000+0 0  9997
2 44543  54.3961 182.2371 0005842 339.8023  19.0264  1.86227617 46047
EUTELSAT 5 WEST B       
1 44624U 19067A   26181.72805616 -.00000031  00000+0  00000+0 0  9999
2 44624   0.0723 328.3048 0003386 131.8383  75.7476  1.00272895 24577
BEIDOU-3 M22            
1 44793U 19078A   26181.50633420 -.00000068  00000+0  00000+0 0  9996
2 44793  53.9229 299.3588 0006126  50.5325 309.5340  1.86227600 44899
BEIDOU-3 M21            
1 44794U 19078B   26178.96140830 -.00000087  00000+0  00000+0 0  9992
2 44794  53.8982 299.4091 0003978  49.1157 310.9195  1.86227959 44851
COSMOS 2544 [GLONASS-M] 
1 44850U 19088A   26177.88383690 -.00000055  00000+0  00000+0 0  9994
2 44850  65.5710  73.4070 0012979 257.6791 102.2158  2.13102970 50923
BEIDOU-3 M19            
1 44864U 19090A   26180.56083194 -.00000055  00000+0  00000+0 0  9997
2 44864  56.5689  62.3817 0017294 297.3724 252.4111  1.86231770 44460
BEIDOU-3 M20            
1 44865U 19090B   26180.41039279 -.00000056  00000+0  00000+0 0  9998
2 44865  56.5707  62.4211 0015146 311.8679 226.6408  1.86231892 44441
BEIDOU-3 G2             
1 45344U 20017A   26181.81623111 -.00000132  00000+0  00000+0 0  9996
2 45344   2.8908  47.5491 0002604  43.3095 201.9585  1.00271840 23395
COSMOS 2545 [GLONASS-M] 
1 45358U 20018A   26180.42510890 -.00000068  00000+0  00000+0 0  9995
2 45358  64.3471 311.9885 0008865 229.6303 130.2863  2.13102698 48927
BEIDOU-3 G3             
1 45807U 20040A   26181.82229781 -.00000345  00000+0  00000+0 0  9998
2 45807   2.4796  67.4778 0002533 332.2931 285.7054  1.00272708 22203
NAVSTAR 79 (USA 304)    
1 45854U 20041A   26180.70415300 -.00000068  00000+0  00000+0 0  9993
2 45854  56.6686  28.4552 0065566 209.6569 153.6928  2.00558736 44295
GALAXY 30 (G-30)        
1 46114U 20056C   26181.60722859  .00000047  00000+0  00000+0 0  9995
2 46114   0.0177  29.8448 0002259  67.0191 275.3998  1.00272760 21427
COSMOS 2547 [GLONASS-K] 
1 46805U 20075A   26178.73770306  .00000098  00000+0  00000+0 0  9999
2 46805  64.6006 192.1234 0009445 239.9136 120.0437  2.13100199 44139
NAVSTAR 80 (USA 309)    
1 46826U 20078A   26181.23148200  .00000071  00000+0  00000+0 0  9997
2 46826  53.9788 210.2495 0073992 207.4938 153.4541  2.00565172 41774
NAVSTAR 81 (USA 319)    
1 48859U 21054A   26181.72502280 -.00000088  00000+0  00000+0 0  9995
2 48859  55.1677 331.9157 0025883 228.3828 315.2538  2.00568454 37028
QZS-1R (MICHIBIKI-1R)   
1 49336U 21096A   26181.61077167 -.00000286  00000+0  00000+0 0  9991
2 49336  37.4875  79.3848 0755934 272.0246 280.1673  1.00251640 17145
GSAT0223 (GALILEO 27)   
1 49809U 21116A   26180.89425034 -.00000086  00000+0  00000+0 0  9996
2 49809  57.1569 341.3321 0001744 184.5600 173.8860  1.70476494 28399
GSAT0224 (GALILEO 28)   
1 49810U 21116B   26181.59302090 -.00000084  00000+0  00000+0 0  9990
2 49810  57.1567 341.3123 0001428 163.7362  16.1903  1.70476570 28439
COSMOS 2557 [GLONASS-K] 
1 52984U 22075A   26180.30969183 -.00000070  00000+0  00000+0 0  9996
2 52984  64.2907 314.0587 0010591 272.5686  87.3025  2.13102382 30974
COSMOS 2559 [GLONASS-K] 
1 54031U 22130A   26181.06787682 -.00000065  00000+0  00000+0 0  9993
2 54031  64.2628 314.1147 0012822 179.4281 180.5683  2.13101830 28966
COSMOS 2564 [GLONASS-M] 
1 54377U 22161A   26181.38035424  .00000082  00000+0  00000+0 0  9993
2 54377  64.7429 192.2737 0012257 225.0751 134.8665  2.13102090 27910
NAVSTAR 82 (USA 343)    
1 55268U 23009A   26178.92981966  .00000027  00000+0  00000+0 0  9991
2 55268  55.1241 148.0967 0006263 317.3274  46.4275  2.00570960 25469
BEIDOU-3 G4             
1 56564U 23066A   26181.82810450 -.00000270  00000+0  00000+0 0  9997
2 56564   0.4727 334.9204 0004980 175.8070 206.3166  1.00269617 11538
NVS-01 (IRNSS-1J)       
1 56759U 23076A   26181.82602448 -.00000324  00000+0  00000+0 0  9990
2 56759   2.1355 243.7330 0002842   9.8545  92.2420  1.00272879 11253
COSMOS 2569 [GLONASS-K2]
1 57517U 23114A   26181.39268046 -.00000020  00000+0  00000+0 0  9993
2 57517  65.3095  72.1752 0010196 296.5286  63.4269  2.13103831 22549
BEIDOU-3 M28            
1 58654U 23207A   26180.11237986 -.00000061  00000+0  00000+0 0  9992
2 58654  55.7632  61.9007 0002902 354.1115   5.9418  1.86229901 17063
BEIDOU-3 M26            
1 58655U 23207B   26179.37291324 -.00000068  00000+0  00000+0 0  9992
2 58655  55.7647  61.9122 0002601 322.6839  37.3509  1.86229915 17039
